COSMOS-482 (VENERA 8)
1  6073U 72023E   25130.02495443  .08088373  12542-4  65849-4 0  9993
2  6073  51.9455 241.9030 0035390 103.6551  63.6433 16.48653575751319
NOAA 2 (ITOS-D)
1 06235U 72082A   25129.97634183 -.00000021  00000-0  15962-3 0  9995
2 06235 102.0221 138.8348 0003836 213.2481 160.9788 12.53199928404446
SOLRAD-7B
1  1291U 65016D   25130.12202651  .00000025  00000-0  57595-4 0  9993
2  1291  70.0810  13.1466 0023429 287.9198  71.9353 13.94908917 60988
OSCAR-7 (AO-7)
1 07530U 74089B   25129.61569057 -.00000030  00000-0  10214-3 0  9996
2 07530 101.9940 133.5494 0012227 179.3747 293.4966 12.53688935309946
UOSAT-2 (UO-11)
1 14781U 84021B   25129.83030624  .00001705  00000-0  18555-3 0  9991
2 14781  97.7523  96.8141 0009492  80.0514 280.1774 14.89293732197067
FLTSATCOM-7 (USA-20)
1 17181U 86096A   25129.60865957  .00000050  00000-0  00000-0 0  9997
2 17181  13.0299 342.6397 0040088 321.8554 205.2167  0.98925970147976
FLTSATCOM-8 (USA-46)
1 20253U 89077A   25129.88080731 -.00000364  00000-0  00000-0 0  9991
2 20253  12.5359 353.5827 0005342  35.6063 281.4696  1.00279399256514
OSCAR 16 (PACSAT)
1 20439U 90005D   25130.04186669  .00000177  00000-0  80609-4 0  9995
2 20439  98.8901 150.3344 0010113 340.0488  74.6128 14.33759149844413
LUSAT (LO-19)
1 20442U 90005G   25129.89407453  .00000185  00000-0  83137-4 0  9995
2 20442  98.8989 135.2178 0010732 312.5037  47.5239 14.33942555844597
UFO 2 (USA 95)
1 22787U 93056A   25129.83975529  .00000129  00000-0  00000-0 0  9998
2 22787  11.7587   5.7065 0003530 352.3092 200.8239  1.00274631114504
EYESAT-1 (AO-27)
1 22825U 93061C   25129.72783033  .00000144  00000-0  72079-4 0  9998
2 22825  98.7384 191.1262 0008096 195.7420 164.3512 14.30788592649304
ITAMSAT (IO-26) 
1 22826U 93061D   25129.68562424  .00000167  00000-0  80377-4 0  9998
2 22826  98.7333 190.9649 0008944 180.4782 179.6393 14.31200567649598
UFO 3 (USA 104)
1 23132U 94035A   25129.84628000  .00000092  00000-0  00000-0 0  9990
2 23132  12.1886   8.0892 0001236 306.6386 237.4543  1.00209745127657
RADIO ROSTO (RS-15)
1 23439U 94085A   25129.93489749 -.00000073  00000-0 -88486-3 0  9998
2 23439  64.8165 235.3615 0145612  80.3692 281.3648 11.27581254250437
UFO 4 (USA 108)
1 23467U 95003A   25129.48751297 -.00000018  00000-0  00000-0 0  9991
2 23467   9.7057  14.4972 0002435  38.3386 162.5052  1.00268676110902
UFO 7 (USA 127)
1 23967U 96042A   25129.01920701 -.00000220  00000-0  00000-0 0  9992
2 23967  10.7296  19.1614 0006334  95.6225  90.2808  1.00299364105435
JAS-2 (FO-29)
1 24278U 96046B   25129.70017438  .00000029  00000-0  62727-4 0  9996
2 24278  98.5795  27.6522 0350910  62.6795 300.9613 13.53246755418595
UFO 8 (USA 138)
1 25258U 98016A   25129.75490638 -.00000182  00000-0  00000-0 0  9999
2 25258  10.6435  25.0801 0003760 259.7844 295.4948  1.00399232 99811
TECHSAT-1B (GO-32)
1 25397U 98043D   25129.78238841  .00000107  00000-0  66586-4 0  9993
2 25397  98.9688 108.2621 0000655 356.1408   3.9764 14.24307091393903
ISS (ZARYA)
1 25544U 98067A   25129.52987991  .00008832  00000-0  16579-3 0  9991
2 25544  51.6373 138.5518 0002579  96.2220  12.6743 15.49431663509168
UFO 10 (USA 146)
1 25967U 99063A   25130.06308622 -.00000181  00000-0  00000+0 0  9994
2 25967   9.7130  29.2331 0001590 332.0353 226.6115  1.00274299 93295
PCSAT (NO-44)
1 26931U 01043C   25129.62948668  .00000187  00000-0  10107-3 0  9995
2 26931  67.0507 207.8613 0005766 273.2480  86.7962 14.31719456232674
PROBA-1
1 26958U 01049B   25130.18026152  .00004237  00000-0  29135-3 0  9999
2 26958  97.9473 120.6246 0058745  44.8641 315.7312 15.05091813283017
SAUDISAT-1C (SO-50)
1 27607U 02058C   25129.84073664  .00001412  00000-0  19395-3 0  9992
2 27607  64.5527 295.4134 0052614 341.1326  18.7828 14.81543710204676
CUTE-1 (CO-55)
1 27844U 03031E   25130.25491435  .00000458  00000-0  21886-3 0  9991
2 27844  98.6767 138.9192 0008353 276.4349  83.5879 14.23972713134352
CUBESAT XI-IV (CO-57)
1 27848U 03031J   25129.97829929  .00000347  00000-0  17264-3 0  9997
2 27848  98.6793 138.6746 0008348 296.9026  63.1299 14.23310166134011
MOZHAYETS-4 (RS-22)
1 27939U 03042A   25130.24498766  .00001667  00000-0  27193-3 0  9991
2 27939  98.3259 298.9696 0012712 105.1747  67.5454 14.72276212156361
UFO 11 (USA 174)
1 28117U 03057A   25129.75395069 -.00000097  00000-0  00000-0 0  9994
2 28117   8.5433  35.6245 0002152 358.6460 180.4763  1.00272709 78407
CUBESAT XI-V (CO-58)
1 28895U 05043F   25129.63565004  .00001965  00000-0  32882-3 0  9999
2 28895  98.2451 273.6093 0015353  49.2996 310.9541 14.70910354 42394
CAPE-1
1 31130U 07012P   25129.81493239  .00001539  00000-0  29340-3 0  9995
2 31130  98.3959  90.3102 0084310 249.5293 109.6842 14.63312313959323
CUTE-1.7+APD II (CO-65)
1 32785U 08021C   25129.87362095  .00006785  00000-0  49358-3 0  9993
2 32785  97.7816 100.8202 0008918 324.0697  35.9927 15.04112475924465
SEEDS-II (CO-66)
1 32791U 08021J   25129.86106389  .00013226  00000-0  65398-3 0  9991
2 32791  97.7260 109.2382 0001326 281.3306  78.7778 15.17962475925833
YUBILEINY (RS-30)
1 32953U 08025A   25130.14187375  .00000025  00000-0  10808-3 0  9991
2 32953  82.5028 246.1034 0020541 112.3676 247.9583 12.43163862769755
KKS-1 (KISEKI)
1 33499U 09002H   25129.86181688  .00001743  00000-0  22915-3 0  9991
2 33499  98.1221  41.5104 0008753 147.2461 212.9295 14.81525229876444
SWISSCUBE
1 35932U 09051B   25129.68089928  .00001375  00000-0  28867-3 0  9996
2 35932  98.4337  25.3338 0007821  36.2150 323.9578 14.61259697830207
BEESAT
1 35933U 09051C   25129.71150156  .00001156  00000-0  24741-3 0  9997
2 35933  98.4267  25.7738 0006455  49.4205 310.7556 14.60685595830262
ITUPSAT-1
1 35935U 09051E   25129.63449305  .00001074  00000-0  23645-3 0  9998
2 35935  98.4363  25.2616 0008791  54.8371 305.3651 14.59487573829853
PROBA-2
1 36037U 09059B   25129.89408819  .00000298  00000-0  80377-4 0  9996
2 36037  98.2378 314.0944 0014532  86.9425 273.3435 14.54540265822894
XIWANG-1 (HOPE-1)
1 36122U 09072B   25129.83821841 -.00000018  00000-0  67440-4 0  9991
2 36122 100.3469  86.2662 0008174  76.5486 283.6538 13.16423994739933
EWS-G2 (GOES-15)
1 36411U 10008A   25129.94714206  .00000045  00000-0  00000-0 0  9995
2 36411   0.2308  85.8432 0001362 175.7848   8.9727  1.00276669 55596
TISAT-1
1 36799U 10035E   25129.70757138  .00012985  00000-0  68116-3 0  9990
2 36799  98.0609  41.8565 0003061 166.5409 193.5904 15.15896194806293
HORYU-2
1 38340U 12025D   25129.90089812  .00003777  00000-0  42338-3 0  9991
2 38340  98.1746 243.6834 0009703  64.8836 295.3384 14.87432475688707
AAUSAT-3
1 39087U 13009B   25130.04708770  .00000861  00000-0  29148-3 0  9996
2 39087  98.3675 318.3226 0011260 349.2725  10.8221 14.39181131639491
STRAND-1
1 39090U 13009E   25130.03419126  .00000410  00000-0  15333-3 0  9994
2 39090  98.3827 315.5330 0008707   4.6134 355.5131 14.36795020639187
CUBEBUG-1 (CAPITAN BETO)
1 39153U 13018D   25129.34988652  .00004649  00000-0  44660-3 0  9994
2 39153  98.1145 268.8128 0013384  47.1662 313.0679 14.93506479650717
PROBA-V
1 39159U 13021A   25129.94945619  .00000091  00000-0  58008-4 0  9995
2 39159  98.3204 124.4806 0003232 221.2242 138.8694 14.23478211623749
ZACUBE-1 (TSHEPISOSAT)
1 39417U 13066B   25129.82871258  .00005661  00000-0  49501-3 0  9990
2 39417  97.7779  87.0167 0045406 152.3036 208.0618 14.96352368620314
TRITON-1
1 39427U 13066M   25130.22895174  .00003786  00000-0  48228-3 0  9991
2 39427  97.8388  44.7746 0096419 104.6637 256.5287 14.78863704614664
DELFI-N3XT
1 39428U 13066N   25129.76590501  .00007387  00000-0  75745-3 0  9990
2 39428  97.8363  47.7724 0087374 101.6928 259.4109 14.87895833614491
GOMX-1
1 39430U 13066Q   25130.14536351  .00002078  00000-0  33015-3 0  9996
2 39430  97.6871 350.6741 0131312 290.1543  68.5577 14.67530117610943
HUMSAT-D
1 39433U 13066T   25129.52247536  .00029111  00000-0  90011-3 0  9999
2 39433  97.5026 124.8791 0009546 212.0533 148.0130 15.33421126625496
VELOX-PII
1 39438U 13066Y   25129.81094594  .00003575  00000-0  36862-3 0  9990
2 39438  97.8278  78.0786 0054898 236.2293 123.3688 14.89754976618845
CUBEBUG-2 (LO-74)
1 39440U 13066AA  25129.84964139  .00004782  00000-0  48847-3 0  9994
2 39440  97.8478  74.6306 0060527 281.9845  77.4591 14.89722706618068
FUNCUBE-1 (AO-73)
1 39444U 13066AE  25129.83753750  .00008231  00000-0  62262-3 0  9992
2 39444  97.7800  91.6446 0042583 129.2276 231.2740 15.01867001618977
UWE-3
1 39446U 13066AG  25129.83652325  .00003378  00000-0  32491-3 0  9998
2 39446  97.8219  80.9414 0052143 219.7905 139.9486 14.92670554617320
UNISAT-6
1 40012U 14033C   25129.82392110  .00002944  00000-0  34466-3 0  9998
2 40012  97.7385 286.8834 0046828 316.9482  42.8074 14.85028820586235
DUCHIFAT-1
1 40021U 14033M   25130.00692420  .00023678  00000-0  88632-3 0  9998
2 40021  98.0964 141.7186 0010893  72.0828 288.1596 15.27255777593656
FUNCUBE-3 (EO-79)
1 40025U 14033R   25130.19730719  .00010014  00000-0  61912-3 0  9998
2 40025  98.0815 111.1155 0011538 148.2719 211.9206 15.10011093592568
SMAP
1 40376U 15003A   25129.93420970  .00000633  00000-0  13153-3 0  9990
2 40376  98.1284 137.7145 0001477 104.7997 255.3369 14.63371932548647
LILACSAT-2
1 40908U 15049K   25130.17174831  .00014676  00000-0  39160-3 0  9999
2 40908  97.5076 149.7972 0007306 267.0695  92.9713 15.38210377533556
LAPAN-A2 (IO-86)
1 40931U 15052B   25038.81889873  .00001817  00000-0  15548-3 0  9993
2 40931   6.0001 108.1159 0012838 187.7041 172.2889 14.78568669506492
LQSAT
1 40958U 15057A   25130.15645321  .00000987  00000-0  14979-3 0  9999
2 40958  97.6562 139.1351 0018361 136.9208 223.3443 14.76024927515828
PRATHAM
1 41783U 16059A   25130.00952726  .00001017  00000-0  19094-3 0  9991
2 41783  97.8245 140.1102 0033098  63.6522 296.8075 14.66358976460413
ALSAT-1N
1 41789U 16059G   25130.16487243  .00001402  00000-0  24968-3 0  9995
2 41789  97.8063 146.7149 0027332  38.9044 321.4122 14.68303191460844
